CCSDS_OMM_VERS = 2.0
CREATION_DATE  = 
ORIGINATOR     = 

OBJECT_NAME    = UNKNOWN
OBJECT_ID      = 
CENTER_NAME    = EARTH
REF_FRAME      = TEME
TIME_SYSTEM    = UTC
MEAN_ELEMENT_THEORY = SGP/SGP4

EPOCH          = 2025-10-29T11:19:15.037248
MEAN_MOTION    = 12.25902086
ECCENTRICITY   = .0387719
INCLINATION    = 101.0862
RA_OF_ASC_NODE = 8.7746
ARG_OF_PERICENTER = 167.9212
MEAN_ANOMALY   = 193.1473

EPHEMERIS_TYPE = 0
CLASSIFICATION_TYPE = U
NORAD_CAT_ID   = 81693
ELEMENT_SET_NO = 999
REV_AT_EPOCH   = 96234
BSTAR          = .41026E-2
MEAN_MOTION_DOT = .547E-5
MEAN_MOTION_DDOT = 0

CCSDS_OMM_VERS = 2.0
CREATION_DATE  = 
ORIGINATOR     = 

OBJECT_NAME    = UNKNOWN
OBJECT_ID      = 
CENTER_NAME    = EARTH
REF_FRAME      = TEME
TIME_SYSTEM    = UTC
MEAN_ELEMENT_THEORY = SGP/SGP4

EPOCH          = 2025-10-25T18:56:57.310944
MEAN_MOTION    = 14.39947114
ECCENTRICITY   = .0006984
INCLINATION    = 70.9989
RA_OF_ASC_NODE = 132.4446
ARG_OF_PERICENTER = 284.1274
MEAN_ANOMALY   = 75.9085

EPHEMERIS_TYPE = 0
CLASSIFICATION_TYPE = U
NORAD_CAT_ID   = 81745
ELEMENT_SET_NO = 999
REV_AT_EPOCH   = 62284
BSTAR          = .96058E-3
MEAN_MOTION_DOT = .2975E-4
MEAN_MOTION_DDOT = 0

CCSDS_OMM_VERS = 2.0
CREATION_DATE  = 
ORIGINATOR     = 

OBJECT_NAME    = UNKNOWN
OBJECT_ID      = 
CENTER_NAME    = EARTH
REF_FRAME      = TEME
TIME_SYSTEM    = UTC
MEAN_ELEMENT_THEORY = SGP/SGP4

EPOCH          = 2025-10-25T07:56:07.130976
MEAN_MOTION    = 12.77587173
ECCENTRICITY   = .036927
INCLINATION    = 99.6930
RA_OF_ASC_NODE = 335.1454
ARG_OF_PERICENTER = 316.3517
MEAN_ANOMALY   = 99.7559

EPHEMERIS_TYPE = 0
CLASSIFICATION_TYPE = U
NORAD_CAT_ID   = 81749
ELEMENT_SET_NO = 999
REV_AT_EPOCH   = 55582
BSTAR          = .86178E-3
MEAN_MOTION_DOT = .214E-5
MEAN_MOTION_DDOT = 0

CCSDS_OMM_VERS = 2.0
CREATION_DATE  = 
ORIGINATOR     = 

OBJECT_NAME    = UNKNOWN
OBJECT_ID      = 
CENTER_NAME    = EARTH
REF_FRAME      = TEME
TIME_SYSTEM    = UTC
MEAN_ELEMENT_THEORY = SGP/SGP4

EPOCH          = 2025-10-28T20:35:21.757344
MEAN_MOTION    = 14.39912612
ECCENTRICITY   = .0021386
INCLINATION    = 82.9181
RA_OF_ASC_NODE = 261.4565
ARG_OF_PERICENTER = 32.6845
MEAN_ANOMALY   = 327.5665

EPHEMERIS_TYPE = 0
CLASSIFICATION_TYPE = U
NORAD_CAT_ID   = 81775
ELEMENT_SET_NO = 999
REV_AT_EPOCH   = 61881
BSTAR          = .36111E-2
MEAN_MOTION_DOT = .11408E-3
MEAN_MOTION_DDOT = 0

CCSDS_OMM_VERS = 2.0
CREATION_DATE  = 
ORIGINATOR     = 

OBJECT_NAME    = UNKNOWN
OBJECT_ID      = 
CENTER_NAME    = EARTH
REF_FRAME      = TEME
TIME_SYSTEM    = UTC
MEAN_ELEMENT_THEORY = SGP/SGP4

EPOCH          = 2025-10-29T09:41:29.800032
MEAN_MOTION    = 13.10691661
ECCENTRICITY   = .0896994
INCLINATION    = 65.8248
RA_OF_ASC_NODE = 195.4880
ARG_OF_PERICENTER = 301.9422
MEAN_ANOMALY   = 49.7399

EPHEMERIS_TYPE = 0
CLASSIFICATION_TYPE = U
NORAD_CAT_ID   = 81792
ELEMENT_SET_NO = 999
REV_AT_EPOCH   = 7422
BSTAR          = .84481E-3
MEAN_MOTION_DOT = .2347E-4
MEAN_MOTION_DDOT = 0

CCSDS_OMM_VERS = 2.0
CREATION_DATE  = 
ORIGINATOR     = 

OBJECT_NAME    = UNKNOWN
OBJECT_ID      = 
CENTER_NAME    = EARTH
REF_FRAME      = TEME
TIME_SYSTEM    = UTC
MEAN_ELEMENT_THEORY = SGP/SGP4

EPOCH          = 2025-10-28T17:13:46.092576
MEAN_MOTION    = 12.37634776
ECCENTRICITY   = .0363602
INCLINATION    = 103.8155
RA_OF_ASC_NODE = 207.5365
ARG_OF_PERICENTER = 319.1710
MEAN_ANOMALY   = 38.2620

EPHEMERIS_TYPE = 0
CLASSIFICATION_TYPE = U
NORAD_CAT_ID   = 81812
ELEMENT_SET_NO = 999
REV_AT_EPOCH   = 53499
BSTAR          = .11775E-1
MEAN_MOTION_DOT = .1859E-4
MEAN_MOTION_DDOT = 0

CCSDS_OMM_VERS = 2.0
CREATION_DATE  = 
ORIGINATOR     = 

OBJECT_NAME    = UNKNOWN
OBJECT_ID      = 
CENTER_NAME    = EARTH
REF_FRAME      = TEME
TIME_SYSTEM    = UTC
MEAN_ELEMENT_THEORY = SGP/SGP4

EPOCH          = 2025-10-29T00:53:39.366816
MEAN_MOTION    = 13.89232787
ECCENTRICITY   = .0181744
INCLINATION    = 66.2392
RA_OF_ASC_NODE = 47.5669
ARG_OF_PERICENTER = 270.3020
MEAN_ANOMALY   = 87.7230

EPHEMERIS_TYPE = 0
CLASSIFICATION_TYPE = U
NORAD_CAT_ID   = 81816
ELEMENT_SET_NO = 999
REV_AT_EPOCH   = 60313
BSTAR          = .2254E-2
MEAN_MOTION_DOT = .3054E-4
MEAN_MOTION_DDOT = 0

CCSDS_OMM_VERS = 2.0
CREATION_DATE  = 
ORIGINATOR     = 

OBJECT_NAME    = UNKNOWN
OBJECT_ID      = 
CENTER_NAME    = EARTH
REF_FRAME      = TEME
TIME_SYSTEM    = UTC
MEAN_ELEMENT_THEORY = SGP/SGP4

EPOCH          = 2025-10-25T05:25:49.791072
MEAN_MOTION    = 12.47533926
ECCENTRICITY   = .0038293
INCLINATION    = 102.1773
RA_OF_ASC_NODE = 34.7198
ARG_OF_PERICENTER = 206.7028
MEAN_ANOMALY   = 153.2068

EPHEMERIS_TYPE = 0
CLASSIFICATION_TYPE = U
NORAD_CAT_ID   = 81819
ELEMENT_SET_NO = 999
REV_AT_EPOCH   = 54196
BSTAR          = .67964E-2
MEAN_MOTION_DOT = .957E-5
MEAN_MOTION_DDOT = 0

CCSDS_OMM_VERS = 2.0
CREATION_DATE  = 
ORIGINATOR     = 

OBJECT_NAME    = UNKNOWN
OBJECT_ID      = 
CENTER_NAME    = EARTH
REF_FRAME      = TEME
TIME_SYSTEM    = UTC
MEAN_ELEMENT_THEORY = SGP/SGP4

EPOCH          = 2025-10-26T20:39:56.837664
MEAN_MOTION    = 14.34654345
ECCENTRICITY   = .0035313
INCLINATION    = 65.8422
RA_OF_ASC_NODE = 105.2140
ARG_OF_PERICENTER = 351.8798
MEAN_ANOMALY   = 8.1718

EPHEMERIS_TYPE = 0
CLASSIFICATION_TYPE = U
NORAD_CAT_ID   = 81824
ELEMENT_SET_NO = 999
REV_AT_EPOCH   = 61786
BSTAR          = .22378E-2
MEAN_MOTION_DOT = .6298E-4
MEAN_MOTION_DDOT = 0

CCSDS_OMM_VERS = 2.0
CREATION_DATE  = 
ORIGINATOR     = 

OBJECT_NAME    = UNKNOWN
OBJECT_ID      = 
CENTER_NAME    = EARTH
REF_FRAME      = TEME
TIME_SYSTEM    = UTC
MEAN_ELEMENT_THEORY = SGP/SGP4

EPOCH          = 2025-10-26T04:00:49.015872
MEAN_MOTION    = 12.93699213
ECCENTRICITY   = .0029303
INCLINATION    = 90.2445
RA_OF_ASC_NODE = 1.8666
ARG_OF_PERICENTER = 146.9088
MEAN_ANOMALY   = 213.3871

EPHEMERIS_TYPE = 0
CLASSIFICATION_TYPE = U
NORAD_CAT_ID   = 81833
ELEMENT_SET_NO = 999
REV_AT_EPOCH   = 44636
BSTAR          = .12406E-2
MEAN_MOTION_DOT = .349E-5
MEAN_MOTION_DDOT = 0

CCSDS_OMM_VERS = 2.0
CREATION_DATE  = 
ORIGINATOR     = 

OBJECT_NAME    = UNKNOWN
OBJECT_ID      = 
CENTER_NAME    = EARTH
REF_FRAME      = TEME
TIME_SYSTEM    = UTC
MEAN_ELEMENT_THEORY = SGP/SGP4

EPOCH          = 2025-10-25T18:46:00.839424
MEAN_MOTION    = 14.32225134
ECCENTRICITY   = .0061625
INCLINATION    = 82.9112
RA_OF_ASC_NODE = 321.8085
ARG_OF_PERICENTER = 300.1989
MEAN_ANOMALY   = 59.3104

EPHEMERIS_TYPE = 0
CLASSIFICATION_TYPE = U
NORAD_CAT_ID   = 81844
ELEMENT_SET_NO = 999
REV_AT_EPOCH   = 61602
BSTAR          = .18979E-2
MEAN_MOTION_DOT = .5239E-4
MEAN_MOTION_DDOT = 0

CCSDS_OMM_VERS = 2.0
CREATION_DATE  = 
ORIGINATOR     = 

OBJECT_NAME    = UNKNOWN
OBJECT_ID      = 
CENTER_NAME    = EARTH
REF_FRAME      = TEME
TIME_SYSTEM    = UTC
MEAN_ELEMENT_THEORY = SGP/SGP4

EPOCH          = 2025-10-29T06:56:18.989088
MEAN_MOTION    = 14.84709924
ECCENTRICITY   = .0089886
INCLINATION    = 97.6775
RA_OF_ASC_NODE = 130.9174
ARG_OF_PERICENTER = 91.2455
MEAN_ANOMALY   = 86.3759

EPHEMERIS_TYPE = 0
CLASSIFICATION_TYPE = U
NORAD_CAT_ID   = 81845
ELEMENT_SET_NO = 999
REV_AT_EPOCH   = 64292
BSTAR          = .41598E-3
MEAN_MOTION_DOT = .3732E-4
MEAN_MOTION_DDOT = 0

