UNKNOWN                 
1 81693U          25302.47170182  .00000547  00000+0  41026-2 0  9999
2 81693 101.0862   8.7746 0387719 167.9212 193.1473 12.25902086962349
UNKNOWN                 
1 81745U          25298.78955221  .00002975  00000+0  96058-3 0  9993
2 81745  70.9989 132.4446 0006984 284.1274  75.9085 14.39947114622847
UNKNOWN                 
1 81749U          25298.33063809  .00000214  00000+0  86178-3 0  9996
2 81749  99.6930 335.1454 0369270 316.3517  99.7559 12.77587173555822
UNKNOWN                 
1 81775U          25301.85789071  .00011408  00000+0  36111-2 0  9991
2 81775  82.9181 261.4565 0021386  32.6845 327.5665 14.39912612618812
UNKNOWN                 
1 81792U          25302.40381713  .00002347  00000+0  84481-3 0  9999
2 81792  65.8248 195.4880 0896994 301.9422  49.7399 13.10691661 74223
UNKNOWN                 
1 81812U          25301.71789459  .00001859  00000+0  11775-1 0  9995
2 81812 103.8155 207.5365 0363602 319.1710  38.2620 12.37634776534992
UNKNOWN                 
1 81816U          25302.03726119  .00003054  00000+0  22540-2 0  9991
2 81816  66.2392  47.5669 0181744 270.3020  87.7230 13.89232787603130
UNKNOWN                 
1 81819U          25298.22627073  .00000957  00000+0  67964-2 0  9996
2 81819 102.1773  34.7198 0038293 206.7028 153.2068 12.47533926541964
UNKNOWN                 
1 81824U          25299.86107451  .00006298  00000+0  22378-2 0  9990
2 81824  65.8422 105.2140 0035313 351.8798   8.1718 14.34654345617863
UNKNOWN                 
1 81833U          25299.16723398  .00000349  00000+0  12406-2 0  9999
2 81833  90.2445   1.8666 0029303 146.9088 213.3871 12.93699213446362
UNKNOWN                 
1 81844U          25298.78195416  .00005239  00000+0  18979-2 0  9996
2 81844  82.9112 321.8085 0061625 300.1989  59.3104 14.32225134616021
UNKNOWN                 
1 81845U          25302.28910867  .00003732  00000+0  41598-3 0  9993
2 81845  97.6775 130.9174 0089886  91.2455  86.3759 14.84709924642928
